{
    "links": {
        "self": "http://www.neowsapp.com/rest/v1/neo/3826801?api_key=iIulBulltgU6a56xZRHN4H3l9WmuAYTsLGpBGhQ2"
    },
    "id": "3826801",
    "neo_reference_id": "3826801",
    "name": "(2018 PX21)",
    "designation": "2018 PX21",
    "nasa_jpl_url": "http://ssd.jpl.nasa.gov/sbdb.cgi?sstr=3826801",
    "absolute_magnitude_h": 23.5,
    "estimated_diameter": {
        "kilometers": {
            "estimated_diameter_min": 0.0530340723,
            "estimated_diameter_max": 0.1185877909
        },
        "meters": {
            "estimated_diameter_min": 53.0340723319,
            "estimated_diameter_max": 118.5877908577
        },
        "miles": {
            "estimated_diameter_min": 0.0329538346,
            "estimated_diameter_max": 0.0736870142
        },
        "feet": {
            "estimated_diameter_min": 173.9963058693,
            "estimated_diameter_max": 389.0675677576
        }
    },
    "is_potentially_hazardous_asteroid": false,
    "close_approach_data": [
        {
            "close_approach_date": "2004-08-20",
            "close_approach_date_full": "2004-Aug-20 17:46",
            "epoch_date_close_approach": 1093023960000,
            "relative_velocity": {
                "kilometers_per_second": "19.5916425065",
                "kilometers_per_hour": "70529.9130235494",
                "miles_per_hour": "43824.5451228827"
            },
            "miss_distance": {
                "astronomical": "0.4815699454",
                "lunar": "187.3307087606",
                "kilometers": "72041838.087856298",
                "miles": "44764722.4200329924"
            },
            "orbiting_body": "Earth"
        },
        {
            "close_approach_date": "2016-02-08",
            "close_approach_date_full": "2016-Feb-08 03:27",
            "epoch_date_close_approach": 1454902020000,
            "relative_velocity": {
                "kilometers_per_second": "14.0182493917",
                "kilometers_per_hour": "50465.697810196",
                "miles_per_hour": "31357.4220643409"
            },
            "miss_distance": {
                "astronomical": "0.4375289358",
                "lunar": "170.1987560262",
                "kilometers": "65453396.859046746",
                "miles": "40670854.8756112548"
            },
            "orbiting_body": "Earth"
        },
        {
            "close_approach_date": "2018-08-23",
            "close_approach_date_full": "2018-Aug-23 17:58",
            "epoch_date_close_approach": 1535047080000,
            "relative_velocity": {
                "kilometers_per_second": "14.0521488016",
                "kilometers_per_hour": "50587.7356856246",
                "miles_per_hour": "31433.2516542149"
            },
            "miss_distance": {
                "astronomical": "0.1794651743",
                "lunar": "69.8119528027",
                "kilometers": "26847607.814458741",
                "miles": "16682329.9259869858"
            },
            "orbiting_body": "Earth"
        },
        {
            "close_approach_date": "2029-08-22",
            "close_approach_date_full": "2029-Aug-22 14:56",
            "epoch_date_close_approach": 1882104960000,
            "relative_velocity": {
                "kilometers_per_second": "17.5175777148",
                "kilometers_per_hour": "63063.2797731086",
                "miles_per_hour": "39185.0695901296"
            },
            "miss_distance": {
                "astronomical": "0.3717242639",
                "lunar": "144.6007386571",
                "kilometers": "55609158.106757893",
                "miles": "34553928.5605812034"
            },
            "orbiting_body": "Earth"
        },
        {
            "close_approach_date": "2030-01-21",
            "close_approach_date_full": "2030-Jan-21 03:47",
            "epoch_date_close_approach": 1895197620000,
            "relative_velocity": {
                "kilometers_per_second": "13.9583387965",
                "kilometers_per_hour": "50250.019667279",
                "miles_per_hour": "31223.4080538157"
            },
            "miss_distance": {
                "astronomical": "0.4128826367",
                "lunar": "160.6113456763",
                "kilometers": "61766363.010303829",
                "miles": "38379838.2778536802"
            },
            "orbiting_body": "Earth"
        }
    ],
    "orbital_data": {
        "orbit_id": "3",
        "orbit_determination_date": "2018-09-09 07:02:00",
        "first_observation_date": "2018-08-11",
        "last_observation_date": "2018-09-08",
        "data_arc_in_days": 28,
        "observations_used": 19,
        "orbit_uncertainty": "7",
        "minimum_orbit_intersection": ".179332",
        "jupiter_tisserand_invariant": "4.755",
        "epoch_osculation": "2459000.5",
        "eccentricity": ".1789810737592796",
        "semi_major_axis": "1.347189211379918",
        "inclination": "26.95974811997302",
        "ascending_node_longitude": "145.0347172806656",
        "orbital_period": "571.1383482598902",
        "perihelion_distance": "1.106067839770223",
        "perihelion_argument": "240.8733731849595",
        "aphelion_distance": "1.588310582989613",
        "perihelion_time": "2458986.802412266198",
        "mean_anomaly": "8.633865330865529",
        "mean_motion": ".6303201336363181",
        "equinox": "J2000",
        "orbit_class": {
            "orbit_class_type": "AMO",
            "orbit_class_description": "Near-Earth asteroid orbits similar to that of 1221 Amor",
            "orbit_class_range": "1.017 AU < q (perihelion) < 1.3 AU"
        }
    },
    "is_sentry_object": false
}